IRIDIUM 911 [-]         
1 24842U 97030G   17345.94124676  .00000105  00000-0  24420-4 0  9990
2 24842  86.4474 276.2184 0013024 214.3859 145.6501 14.45001796 78618
